{
  "type": "FeatureCollection",
  "name": "North-South Active Travel Corridor (Example)",
  "crs": { "type": "name", "properties": { "name": "urn:ogc:def:crs:OGC:1.3:CRS84" } },
  "features": [
    {
      "type": "Feature",
      "properties": {
        "id": 100,
        "name": "HS2 Phase 1 Main Railway Alignment",
        "layer_type": "hs2_railway",
        "structure": "Track Alignment",
        "phase": "Phase 1",
        "length_km": 140.0
      },
      "geometry": {
        "type": "LineString",
        "coordinates": [
          [-0.133, 51.528],
          [-0.250, 51.560],
          [-0.490, 51.590],
          [-0.720, 51.750],
          [-1.010, 51.930],
          [-1.380, 52.180],
          [-1.710, 52.440],
          [-1.880, 52.480]
        ]
      }
    },
    {
      "type": "Feature",
      "properties": {
        "id": 1,
        "name": "Colne Valley Viaduct Trail",
        "link_id": "HS2-CV-01",
        "section": "1",
        "category": "Cycleway beside HS2",
        "classification": "HS2 Haulage",
        "developer": "HS2",
        "setting": "Rural",
        "length_km": 3.45,
        "folder": "HS2 Alignment",
        "layer_type": "active_route",
        "remarks": "Repurposed construction haul route parallel to Colne Valley viaduct."
      },
      "geometry": {
        "type": "LineString",
        "coordinates": [
          [-0.498, 51.585],
          [-0.505, 51.595],
          [-0.512, 51.608],
          [-0.520, 51.618]
        ]
      }
    },
    {
      "type": "Feature",
      "properties": {
        "id": 2,
        "name": "Chilterns Greenway Link",
        "link_id": "CH-GW-04",
        "section": "2",
        "category": "Traffic-free path away from highway",
        "classification": "New Greenway",
        "developer": "Local Authority",
        "setting": "Rural AONB",
        "length_km": 5.20,
        "folder": "HS2 Alignment",
        "layer_type": "active_route",
        "remarks": "Dedicated 3.5m asphalt/bound surface for walkers, wheelers, and cyclists."
      },
      "geometry": {
        "type": "LineString",
        "coordinates": [
          [-0.550, 51.650],
          [-0.570, 51.670],
          [-0.590, 51.690],
          [-0.610, 51.710]
        ]
      }
    },
    {
      "type": "Feature",
      "properties": {
        "id": 3,
        "name": "Wendover Woods Bridleway Upgrade",
        "link_id": "WW-PR-02",
        "section": "3",
        "category": "Traffic-free path away from highway",
        "classification": "Upgrade PROW",
        "developer": "Sustrans",
        "setting": "Woodland",
        "length_km": 2.10,
        "folder": "HS2 Alignment",
        "layer_type": "active_route",
        "remarks": "Upgraded public right of way with all-weather bound aggregate."
      },
      "geometry": {
        "type": "LineString",
        "coordinates": [
          [-0.720, 51.750],
          [-0.730, 51.765],
          [-0.745, 51.780]
        ]
      }
    },
    {
      "type": "Feature",
      "properties": {
        "id": 4,
        "name": "Aylesbury Vale Quietway",
        "link_id": "AV-QL-07",
        "section": "4",
        "category": "20mph and traffic calmed or protected cycle lane",
        "classification": "Quiet Lane",
        "developer": "Local Authority",
        "setting": "Semi-rural",
        "length_km": 3.60,
        "folder": "HS2 Alignment",
        "layer_type": "active_route",
        "remarks": "Modal filters and 20mph speed reduction connecting to Aylesbury Greenway."
      },
      "geometry": {
        "type": "LineString",
        "coordinates": [
          [-0.810, 51.815],
          [-0.830, 51.835],
          [-0.850, 51.850]
        ]
      }
    },
    {
      "type": "Feature",
      "properties": {
        "id": 5,
        "name": "South London Avenue Verte Greenway",
        "link_id": "AV-SL-01",
        "section": "South of London",
        "category": "Traffic-free path away from highway",
        "classification": "Existing routes",
        "developer": "Southwark Council",
        "setting": "South of London",
        "length_km": 6.80,
        "folder": "Averte Verte",
        "layer_type": "active_route",
        "remarks": "Continuous greenway corridor connecting London southwards to Surrey & Sussex."
      },
      "geometry": {
        "type": "LineString",
        "coordinates": [
          [-0.080, 51.490],
          [-0.090, 51.450],
          [-0.100, 51.400],
          [-0.115, 51.350],
          [-0.130, 51.300]
        ]
      }
    },
    {
      "type": "Feature",
      "properties": {
        "id": 6,
        "name": "Grand Union Canal Towpath Upgrade",
        "link_id": "CRT-GU-09",
        "section": "7",
        "category": "Canal tow path or new path close by canal",
        "classification": "Canal Towpath Upgrade",
        "developer": "Canals & River Trust",
        "setting": "Canal Corridor",
        "length_km": 2.80,
        "folder": "HS2 Alignment",
        "layer_type": "active_route",
        "remarks": "Widened towpath with bound crushed limestone surface."
      },
      "geometry": {
        "type": "LineString",
        "coordinates": [
          [-1.150, 52.050],
          [-1.170, 52.070],
          [-1.190, 52.090]
        ]
      }
    },
    {
      "type": "Feature",
      "properties": {
        "id": 7,
        "name": "Kenilworth Greenway Extension",
        "link_id": "KW-GW-01",
        "section": "12",
        "category": "Traffic-free path away from highway",
        "classification": "New Greenway",
        "developer": "Local Authority",
        "setting": "Parkland/Greenway",
        "length_km": 4.50,
        "folder": "HS2 Alignment",
        "layer_type": "active_route",
        "remarks": "Flagship 4m wide multi-user greenway on former railway alignment."
      },
      "geometry": {
        "type": "LineString",
        "coordinates": [
          [-1.560, 52.330],
          [-1.580, 52.355],
          [-1.600, 52.380]
        ]
      }
    },
    {
      "type": "Feature",
      "properties": {
        "id": 8,
        "name": "Solihull Interchange Active Link",
        "link_id": "WM-SO-05",
        "section": "14",
        "category": "20mph and traffic calmed or protected cycle lane",
        "classification": "Local Road Quietway",
        "developer": "DfT",
        "setting": "Urban Fringe",
        "length_km": 1.90,
        "folder": "HS2 Alignment",
        "layer_type": "active_route",
        "remarks": "Protected cycleway connecting Solihull HS2 Interchange to residential hub."
      },
      "geometry": {
        "type": "LineString",
        "coordinates": [
          [-1.710, 52.440],
          [-1.725, 52.455],
          [-1.740, 52.470]
        ]
      }
    },
    {
      "type": "Feature",
      "properties": {
        "id": 9,
        "name": "Birmingham Curzon Street Gateway",
        "link_id": "BC-CZ-01",
        "section": "15",
        "category": "20mph and traffic calmed or protected cycle lane",
        "classification": "Main Road-Cycle tracks",
        "developer": "Local Authority",
        "setting": "Urban Core",
        "length_km": 1.40,
        "folder": "HS2 Alignment",
        "layer_type": "active_route",
        "remarks": "Stepped cycle tracks and wide pedestrian footways approaching terminal."
      },
      "geometry": {
        "type": "LineString",
        "coordinates": [
          [-1.880, 52.480],
          [-1.895, 52.483],
          [-1.910, 52.486]
        ]
      }
    },
    {
      "type": "Feature",
      "properties": {
        "id": 10,
        "name": "Sussex Cuckoo Trail Link",
        "link_id": "AV-SX-03",
        "section": "South of London",
        "category": "Traffic-free path away from highway",
        "classification": "New Greenway",
        "developer": "East Sussex County Council",
        "setting": "South of London",
        "length_km": 5.40,
        "folder": "Averte Verte",
        "layer_type": "active_route",
        "remarks": "Traffic-free former railway path connecting Heathfield to Polegate."
      },
      "geometry": {
        "type": "LineString",
        "coordinates": [
          [0.250, 50.960],
          [0.260, 50.920],
          [0.270, 50.880],
          [0.250, 50.820]
        ]
      }
    }
  ]
}
